C/2021 C5 (PANSTARRS),e,50.7921,323.6733,270.9139,1776,0.0000132,0.99817477,0.0000,02/10.9942/2023,2000,g  9.0,4.0
# From MPEC 2022-YB4
C/2021 C6 (Lemmon),e,164.6043,332.3460,203.8204,3342,0.0000051,0.99901873,0.0000,11/12.3567/2021,2000,g 12.0,4.0
# From MPEC 2022-F14
C/2021 D1 (SWAN),e,31.3948,311.2301,72.3426,101.6923,0.0009611,0.99110232,0.0000,02/27.7064/2021,2000,g 13.0,4.0
# From MPEC 2023-J29
C/2021 D2 (ZTF),h,02/03.8985/2022,83.7897,305.6550,125.0356,1.001559,2.946927,2000,9.0,4.0
# From MPEC 2022-UY9
A/2021 E2,e,167.4899,190.7944,342.2930,210.5737,0.0003226,0.98915982,0.0000,12/09.8463/2020,2000,g 15.0,2.0
# From MPEC 2024-GJ3
C/2021 E3 (ZTF),h,06/11.7194/2022,112.5301,104.4834,228.8282,1.000438,1.777117,2000,8.5,4.0
# From MPEC 2023-SQ0
A/2021 E4,e,116.3647,171.1609,48.2669,523.2993,0.0000823,0.99106177,0.0000,04/24.9689/2022,2000,g 13.5,22.0
# From MPEC 2022-QD9
C/2021 F1 (Lemmon-PANSTARRS),e,107.3139,203.4849,146.8913,243.6339,0.0002592,0.99590464,0.0000,04/06.7665/2022,2000,g 13.5,4.0
# From MPEC 2021-J72
C/2021 G1 (Leonard),e,131.5491,270.6999,107.4371,72.17878,0.0016073,0.95254719,1.7194,06/25.0/2024,2000,g 14.0,4.0
# From MPEC 2024-M41
C/2021 G2 (ATLAS),h,09/09.2481/2024,48.4740,221.0946,343.2832,1.000116,4.982369,2000,5.5,4.0
# From MPEC 2022-X67
C/2021 G3 (PANSTARRS),e,102.8694,147.3778,10.5801,10387,0.0000009,0.99950127,0.0000,10/17.8792/2021,2000,g 10.5,4.0
# From MPEC 2021-Y10
P/2021 HS (PANSTARRS),e,12.1557,262.3629,46.1403,4.194267,0.1147414,0.80949900,120.9708,06/25.0/2024,2000,g 22.0,4.0
# From MPEC 2022-C56
C/2021 J1 (Maury-Attard),e,92.7123,88.4153,147.2690,26.29040,0.0073115,0.93389208,8.9319,06/25.0/2024,2000,g 15.5,4.0
# From MPEC 2023-XP6
C/2021 J2 (PANSTARRS),e,156.2124,23.3283,171.9429,114.7077,0.0008023,0.95900814,0.8082,06/25.0/2024,2000,g 12.0,4.0
# From MPEC 2024-F34
P/2021 J3 (ATLAS),e,14.5227,111.0899,125.8100,8.909418,0.0370621,0.44901884,67.4624,06/25.0/2024,2000,g  7.0,4.0
# From MPEC 2022-O08
C/2021 K1 (ATLAS),e,16.2732,140.9168,184.2624,12.63871,0.0219356,0.80213573,25.1926,06/25.0/2024,2000,g 11.0,4.0
# From MPEC 2022-O01
C/2021 K2 (MASTER),h,09/09.6227/2021,100.8646,282.3224,343.3352,1.000870,5.468031,2000,8.0,4.0
# From MPEC 2022-L66
C/2021 K3 (Catalina),h,02/03.9281/2022,134.7784,114.5861,182.0507,1.004484,5.231240,2000,10.0,4.0
# From MPEC 2021-W31
P/2021 L2 (Leonard),e,21.0648,266.6538,51.4893,4.048400,0.1209982,0.52076793,129.1466,06/25.0/2024,2000,g 17.0,4.0
# From MPEC 2024-H50
C/2021 L3 (Borisov),h,02/14.7264/2022,78.5612,344.9991,91.6342,1.004539,8.458814,2000,6.0,4.0
# From MPEC 2022-TA0
P/2021 N1 (ZTF),e,11.4885,301.1468,21.2390,2.978867,0.1917023,0.67591959,213.7621,06/25.0/2024,2000,g 19.0,4.0
# From MPEC 2024-GJ3
P/2021 N2 (Fuls),e,13.0612,221.7321,177.5631,6.943751,0.0538658,0.45253099,51.3711,06/25.0/2024,2000,g  9.5,4.0
# From MPEC 2022-YB4
C/2021 N3 (PANSTARRS),e,26.7508,337.5049,304.7007,144.9266,0.0005649,0.96055597,0.7948,06/25.0/2024,2000,g  8.5,4.0
# From MPEC 2022-A21
C/2021 O1 (Nishimura),e,27.5928,41.5898,74.3902,2977,0.0000061,0.99973682,0.0000,08/14.3454/2021,2000,g 10.5,4.0
# From MPEC 2022-L66
C/2021 O3 (PANSTARRS),h,04/21.1314/2022,56.8026,188.9411,299.9611,1.000043,0.285904,2000,10.5,4.0
# From MPEC 2024-F34
C/2021 P1 (PANSTARRS),e,51.6330,359.6906,40.5047,2912,0.0000063,0.99849677,0.0000,06/02.6213/2022,2000,g 11.0,4.0
# From MPEC 2024-LE0
C/2021 P2 (PANSTARRS),e,150.0623,32.0841,76.7211,5970,0.0000021,0.99915091,0.0000,01/23.0178/2023,2000,g  9.0,4.0
# From MPEC 2024-GJ3
P/2021 P3 (PANSTARRS),e,27.1611,358.2456,334.0749,4.412439,0.1063374,0.33862418,119.3676,06/25.0/2024,2000,g 14.0,4.0
# From MPEC 2023-A50
C/2021 P4 (ATLAS),e,56.3312,348.0587,175.7948,296.2365,0.0001933,0.99635635,0.0000,07/30.3423/2022,2000,g  9.5,4.0
# From MPEC 2023-E68
P/2021 PE20 (ATLAS),e,20.0007,99.6255,210.4659,3.745959,0.1359439,0.66993904,151.5293,06/25.0/2024,2000,g 17.0,4.0
# From MPEC 2023-FK0
C/2021 Q3 (ATLAS),e,77.7350,307.9144,114.1216,75.57953,0.0015000,0.93111807,1.3211,06/25.0/2024,2000,g  8.0,4.0
# From MPEC 2024-LE0
C/2021 Q4 (Fuls),h,06/11.4887/2023,71.4899,183.3273,147.0725,1.002805,7.565483,2000,6.0,4.0
# From MPEC 2022-C56
P/2021 Q5 (ATLAS),e,10.7399,239.7572,180.9371,3.286899,0.1653958,0.62467022,170.1967,06/25.0/2024,2000,g 15.0,4.0
# From MPEC 2023-XP6
C/2021 Q6 (PANSTARRS),h,03/25.1703/2024,161.8432,133.5446,141.0363,1.001824,8.707863,2000,6.0,4.0
# From MPEC 2023-FK0
C/2021 QM45 (PANSTARRS),e,22.8138,354.5971,72.8650,393.2215,0.0001264,0.99294258,0.0000,08/13.6596/2022,2000,g 11.0,4.0
# From MPEC 2022-X67
P/2021 R1 (PANSTARRS),e,5.5227,143.2245,220.2158,8.291291,0.0412830,0.41079638,38.1731,06/25.0/2024,2000,g 11.0,4.0
# From MPEC 2022-X67
C/2021 R2 (PANSTARRS),e,134.4837,16.3107,32.5127,4629,0.0000031,0.99841952,0.0000,12/27.8895/2021,2000,g  7.5,4.0
# From MPEC 2021-W31
P/2021 R3 (PANSTARRS),e,19.9335,304.1938,2.6802,3.770809,0.1346022,0.33104184,151.6655,06/25.0/2024,2000,g 16.0,4.0
# From MPEC 2021-W31
P/2021 R4 (Wierzchos),e,21.0232,321.2939,56.7269,5.625758,0.0738640,0.58575253,72.7585,06/25.0/2024,2000,g 16.0,4.0
# From MPEC 2024-JU4
P/2021 R5 (Rankin),e,7.8545,219.9542,167.5538,4.796169,0.0938344,0.30641996,83.9131,06/25.0/2024,2000,g 12.0,4.0
# From MPEC 2021-W31
P/2021 R6 (Groeller),e,34.9124,176.1604,220.8281,6.285892,0.0625394,0.59336336,60.4632,06/25.0/2024,2000,g 14.5,4.0
# From MPEC 2022-X67
C/2021 R7 (PANSTARRS),e,158.8654,170.1729,140.3255,883.7713,0.0000375,0.99360432,0.0000,04/16.6967/2021,2000,g 10.5,4.0
# From MPEC 2021-Y10
P/2021 R8 (Sheppard),e,2.2032,167.0742,190.8362,3.019235,0.1878706,0.29295880,186.3179,06/25.0/2024,2000,g 18.5,4.0
# From MPEC 2023-J29
C/2021 S1 (ATLAS),h,03/01.6007/2022,52.0506,299.8684,148.2457,1.002645,6.121267,2000,7.0,4.0
# From MPEC 2024-M41
C/2021 S3 (PANSTARRS),h,02/14.7069/2024,58.5329,215.6207,6.8516,1.000234,1.320185,2000,5.5,4.0
# From MPEC 2024-GJ3
C/2021 S4 (Tsuchinshan),e,17.4782,5.4784,72.9465,161.7455,0.0004791,0.95864137,0.0833,06/25.0/2024,2000,g  6.5,4.0
# From MPEC 2022-OB6
C/2021 T1 (Lemmon),e,140.3615,56.8443,51.5671,2015,0.0000109,0.99848108,0.0000,10/14.4434/2021,2000,g 12.5,4.0
# From MPEC 2023-A50
C/2021 T2 (Fuls),h,06/08.0896/2022,117.5372,223.2324,263.5793,1.000520,1.246421,2000,12.0,4.0
# From MPEC 2024-LE0
C/2021 T4 (Lemmon),e,160.7782,257.8889,329.8136,20498,0.0000003,0.99992766,0.0000,07/31.5418/2023,2000,g  7.5,4.0
# From MPEC 2022-ED3
P/2021 U1 (Wierzchos),e,30.5519,246.7900,145.1785,8.534672,0.0395297,0.71297433,39.4458,06/25.0/2024,2000,g 14.5,4.0
# From MPEC 2022-L66
P/2021 U3 (Attard-Maury),e,69.9621,75.0944,335.2847,4.195346,0.1146971,0.54975499,111.7245,06/25.0/2024,2000,g 15.5,4.0
# From MPEC 2021-W31
C/2021 U4 (Leonard),e,152.8897,241.8086,237.3359,45.26969,0.0032359,0.96048313,2.9636,06/25.0/2024,2000,g 17.0,4.0
# From MPEC 2022-WQ9
C/2021 U5 (Catalina),e,39.0442,182.7275,321.4269,218.1492,0.0003059,0.98918069,0.0000,01/26.7100/2022,2000,g 13.0,4.0
# From MPEC 2022-CN4
C/2021 V1 (Rankin),e,71.4511,207.6738,195.1778,682.3999,0.0000553,0.99557958,0.0000,04/30.5952/2022,2000,g 13.0,4.0
# From MPEC 2024-JU4
P/2021 V2 (Fuls),e,12.6949,232.2756,259.8598,9.077610,0.0360368,0.61480933,18.7530,06/25.0/2024,2000,g 10.0,4.0
# From MPEC 2024-M41
C/2021 X1 (Maury-Attard),h,05/27.1508/2023,140.0995,10.5939,334.5711,1.000272,3.233626,2000,7.0,4.0
# From MPEC 2024-E08
C/2021 X2 (Bok),h,07/08.1435/2022,137.1607,228.8248,193.3291,1.001036,2.996268,2000,13.0,4.0
# From MPEC 2024-GJ3
C/2021 Y1 (ATLAS),h,04/30.7751/2023,77.1946,244.7669,245.8363,1.001240,2.032562,2000,7.0,4.0
# From MPEC 2022-YN2
C/2022 A1 (Sarneczky),e,116.5435,285.5048,201.2479,354.2567,0.0001478,0.99645872,0.0000,01/31.0481/2022,2000,g 18.0,4.0
# From MPEC 2024-L77
C/2022 A2 (PANSTARRS),h,02/18.2167/2023,108.1364,171.5848,88.3681,1.000215,1.735500,2000,9.5,4.0
# From MPEC 2024-JU4
C/2022 A3 (Lemmon-ATLAS),e,88.3413,325.4715,234.8537,859.2302,0.0000391,0.99568950,0.0000,09/28.8784/2023,2000,g  8.0,4.0
# From MPEC 2022-K19
P/2022 B1 (Wierzchos),e,10.9908,325.4231,148.8797,5.467447,0.0770952,0.65343286,65.5607,06/25.0/2024,2000,g 16.5,4.0
# From MPEC 2022-YB4
A/2022 B3,e,132.0535,286.1871,150.6951,682.3305,0.0000553,0.99457639,0.0000,01/17.1056/2022,2000,g 16.5,2.0
# From MPEC 2022-GA9
C/2022 B4 (Bok),e,20.0482,340.5889,152.9585,387.3620,0.0001293,0.99644547,0.0000,01/30.1085/2022,2000,g 21.0,4.0
# From MPEC 2023-J29
P/2022 BV9 (Lemmon),e,11.9284,337.3106,16.3230,4.363733,0.1081227,0.23413189,144.9233,06/25.0/2024,2000,g  9.5,4.0
# From MPEC 2023-J29
P/2022 C1 (PANSTARRS),e,4.7624,113.1141,9.3800,7.228509,0.0507144,0.44881660,48.8487,06/25.0/2024,2000,g 12.0,4.0
# From MPEC 2023-VM5
P/2022 C2 (PANSTARRS),e,9.9832,135.2606,89.2047,6.035965,0.0664636,0.44184479,45.7936,06/25.0/2024,2000,g 12.5,4.0
# From MPEC 2023-UR6
P/2022 C3 (PANSTARRS),e,12.8212,139.0407,93.8638,9.621599,0.0330243,0.54551832,23.9599,06/25.0/2024,2000,g 11.5,4.0
# From MPEC 2022-K19
P/2022 D1 (PANSTARRS),e,44.0772,47.9581,88.6550,7.403645,0.0489256,0.54763442,50.4781,06/25.0/2024,2000,g 12.5,4.0
# From MPEC 2022-K19
C/2022 D2 (Kowalski),e,22.6661,312.4044,177.8077,377.6524,0.0001343,0.99588740,0.0000,03/27.7522/2022,2000,g 17.0,4.0
# From MPEC 2022-L66
P/2022 E1 (Christensen),e,19.0071,113.3450,114.9888,3.778841,0.1341733,0.22062481,100.0983,06/25.0/2024,2000,g 13.5,4.0
# From MPEC 2024-JU4
C/2022 E2 (ATLAS),h,09/14.1177/2024,137.1268,125.3711,41.7186,1.000886,3.666293,2000,5.0,4.0
# From MPEC 2024-GJ3
C/2022 E3 (ZTF),h,01/12.6984/2023,109.1688,302.5437,145.8091,1.000044,1.112566,2000,7.5,4.0
# From MPEC 2024-GJ3
C/2022 F1 (ATLAS),e,57.9871,350.6413,278.2938,4003,0.0000039,0.99850723,0.0000,08/05.1944/2022,2000,g  7.0,4.0
# From MPEC 2022-QD9
C/2022 F2 (NEOWISE),e,97.3138,58.7832,200.6211,23.94199,0.0084132,0.93363390,6.9406,06/25.0/2024,2000,g 14.5,4.0
# From MPEC 2024-JU4
C/2022 H1 (PANSTARRS),e,49.8607,6.3493,246.3032,890.3664,0.0000371,0.99136332,0.0000,01/19.0571/2024,2000,g  6.0,4.0
# From MPEC 2022-VC5
